QIANFAN-49              
1 62250U 24232P   25324.69492199  .00000192  00000+0  27857-3 0  9996
2 62250  89.0045  43.4564 0012537 254.6498 105.3268 13.50977779 64869
QIANFAN-50              
1 62251U 24232Q   25324.64553905  .00000182  00000+0  26422-3 0  9991
2 62251  89.0051  43.4683 0014168 256.8439 103.1131 13.50978293 64889
QIANFAN-51              
1 62252U 24232R   25324.70314927  .00000186  00000+0  27007-3 0  9992
2 62252  89.0045  43.4577 0011596 260.1249  99.8593 13.50976072 64880
QIANFAN-52              
1 62253U 24232S   25324.65790463  .00000191  00000+0  27697-3 0  9991
2 62253  89.0041  43.3368 0013736 252.1667 107.7986 13.50977134 64961
QIANFAN-53              
1 62254U 24232T   25324.63730384  .00000162  00000+0  23291-3 0  9990
2 62254  89.0048  43.4416 0012604 253.0855 106.8915 13.50972272 64922
QIANFAN-54              
1 62255U 24232U   25324.67849925  .00000171  00000+0  24618-3 0  9991
2 62255  89.0039  43.1180 0000451   1.1260 358.9892 13.50972470 96432
QIANFAN-55              
1 62785U 25016A   25324.70476054  .00000097  00000+0  13103-3 0  9997
2 62785  88.9763 105.4827 0018475  56.0072 304.2832 13.50980899 44218
QIANFAN-56              
1 62786U 25016B   25324.72105338  .00000098  00000+0  13241-3 0  9998
2 62786  88.9737 105.3235 0017179  58.5234 301.7593 13.50981597 44266
