<?xml version="1.0" encoding="UTF-8"?>
<ndm xmlns:xsi="http://www.w3.org/2001/XMLSchema-instance" xsi:noNamespaceSchemaLocation="https://sanaregistry.org/r/ndmxml_unqualified/ndmxml-2.0.0-master-2.0.xsd">
<omm id="CCSDS_OMM_VERS" version="2.0">
<header><CREATION_DATE/><ORIGINATOR/></header><body><segment><metadata><OBJECT_NAME>QIANFAN-49</OBJECT_NAME><OBJECT_ID>2024-232P</OBJECT_ID><CENTER_NAME>EARTH</CENTER_NAME><REF_FRAME>TEME</REF_FRAME><TIME_SYSTEM>UTC</TIME_SYSTEM><MEAN_ELEMENT_THEORY>SGP4</MEAN_ELEMENT_THEORY></metadata><data><meanElements><EPOCH>2025-11-20T16:40:41.259936</EPOCH><MEAN_MOTION>13.50977779</MEAN_MOTION><ECCENTRICITY>.0012537</ECCENTRICITY><INCLINATION>89.0045</INCLINATION><RA_OF_ASC_NODE>43.4564</RA_OF_ASC_NODE><ARG_OF_PERICENTER>254.6498</ARG_OF_PERICENTER><MEAN_ANOMALY>105.3268</MEAN_ANOMALY></meanElements><tleParameters><EPHEMERIS_TYPE>0</EPHEMERIS_TYPE><CLASSIFICATION_TYPE>U</CLASSIFICATION_TYPE><NORAD_CAT_ID>62250</NORAD_CAT_ID><ELEMENT_SET_NO>999</ELEMENT_SET_NO><REV_AT_EPOCH>6486</REV_AT_EPOCH><BSTAR>.27857E-3</BSTAR><MEAN_MOTION_DOT>.192E-5</MEAN_MOTION_DOT><MEAN_MOTION_DDOT>0</MEAN_MOTION_DDOT></tleParameters></data></segment></body></omm>
<omm id="CCSDS_OMM_VERS" version="2.0">
<header><CREATION_DATE/><ORIGINATOR/></header><body><segment><metadata><OBJECT_NAME>QIANFAN-50</OBJECT_NAME><OBJECT_ID>2024-232Q</OBJECT_ID><CENTER_NAME>EARTH</CENTER_NAME><REF_FRAME>TEME</REF_FRAME><TIME_SYSTEM>UTC</TIME_SYSTEM><MEAN_ELEMENT_THEORY>SGP4</MEAN_ELEMENT_THEORY></metadata><data><meanElements><EPOCH>2025-11-20T15:29:34.573920</EPOCH><MEAN_MOTION>13.50978293</MEAN_MOTION><ECCENTRICITY>.0014168</ECCENTRICITY><INCLINATION>89.0051</INCLINATION><RA_OF_ASC_NODE>43.4683</RA_OF_ASC_NODE><ARG_OF_PERICENTER>256.8439</ARG_OF_PERICENTER><MEAN_ANOMALY>103.1131</MEAN_ANOMALY></meanElements><tleParameters><EPHEMERIS_TYPE>0</EPHEMERIS_TYPE><CLASSIFICATION_TYPE>U</CLASSIFICATION_TYPE><NORAD_CAT_ID>62251</NORAD_CAT_ID><ELEMENT_SET_NO>999</ELEMENT_SET_NO><REV_AT_EPOCH>6488</REV_AT_EPOCH><BSTAR>.26422E-3</BSTAR><MEAN_MOTION_DOT>.182E-5</MEAN_MOTION_DOT><MEAN_MOTION_DDOT>0</MEAN_MOTION_DDOT></tleParameters></data></segment></body></omm>
<omm id="CCSDS_OMM_VERS" version="2.0">
<header><CREATION_DATE/><ORIGINATOR/></header><body><segment><metadata><OBJECT_NAME>QIANFAN-51</OBJECT_NAME><OBJECT_ID>2024-232R</OBJECT_ID><CENTER_NAME>EARTH</CENTER_NAME><REF_FRAME>TEME</REF_FRAME><TIME_SYSTEM>UTC</TIME_SYSTEM><MEAN_ELEMENT_THEORY>SGP4</MEAN_ELEMENT_THEORY></metadata><data><meanElements><EPOCH>2025-11-20T16:52:32.096928</EPOCH><MEAN_MOTION>13.50976072</MEAN_MOTION><ECCENTRICITY>.0011596</ECCENTRICITY><INCLINATION>89.0045</INCLINATION><RA_OF_ASC_NODE>43.4577</RA_OF_ASC_NODE><ARG_OF_PERICENTER>260.1249</ARG_OF_PERICENTER><MEAN_ANOMALY>99.8593</MEAN_ANOMALY></meanElements><tleParameters><EPHEMERIS_TYPE>0</EPHEMERIS_TYPE><CLASSIFICATION_TYPE>U</CLASSIFICATION_TYPE><NORAD_CAT_ID>62252</NORAD_CAT_ID><ELEMENT_SET_NO>999</ELEMENT_SET_NO><REV_AT_EPOCH>6488</REV_AT_EPOCH><BSTAR>.27007E-3</BSTAR><MEAN_MOTION_DOT>.186E-5</MEAN_MOTION_DOT><MEAN_MOTION_DDOT>0</MEAN_MOTION_DDOT></tleParameters></data></segment></body></omm>
<omm id="CCSDS_OMM_VERS" version="2.0">
<header><CREATION_DATE/><ORIGINATOR/></header><body><segment><metadata><OBJECT_NAME>QIANFAN-52</OBJECT_NAME><OBJECT_ID>2024-232S</OBJECT_ID><CENTER_NAME>EARTH</CENTER_NAME><REF_FRAME>TEME</REF_FRAME><TIME_SYSTEM>UTC</TIME_SYSTEM><MEAN_ELEMENT_THEORY>SGP4</MEAN_ELEMENT_THEORY></metadata><data><meanElements><EPOCH>2025-11-20T15:47:22.960032</EPOCH><MEAN_MOTION>13.50977134</MEAN_MOTION><ECCENTRICITY>.0013736</ECCENTRICITY><INCLINATION>89.0041</INCLINATION><RA_OF_ASC_NODE>43.3368</RA_OF_ASC_NODE><ARG_OF_PERICENTER>252.1667</ARG_OF_PERICENTER><MEAN_ANOMALY>107.7986</MEAN_ANOMALY></meanElements><tleParameters><EPHEMERIS_TYPE>0</EPHEMERIS_TYPE><CLASSIFICATION_TYPE>U</CLASSIFICATION_TYPE><NORAD_CAT_ID>62253</NORAD_CAT_ID><ELEMENT_SET_NO>999</ELEMENT_SET_NO><REV_AT_EPOCH>6496</REV_AT_EPOCH><BSTAR>.27697E-3</BSTAR><MEAN_MOTION_DOT>.191E-5</MEAN_MOTION_DOT><MEAN_MOTION_DDOT>0</MEAN_MOTION_DDOT></tleParameters></data></segment></body></omm>
<omm id="CCSDS_OMM_VERS" version="2.0">
<header><CREATION_DATE/><ORIGINATOR/></header><body><segment><metadata><OBJECT_NAME>QIANFAN-53</OBJECT_NAME><OBJECT_ID>2024-232T</OBJECT_ID><CENTER_NAME>EARTH</CENTER_NAME><REF_FRAME>TEME</REF_FRAME><TIME_SYSTEM>UTC</TIME_SYSTEM><MEAN_ELEMENT_THEORY>SGP4</MEAN_ELEMENT_THEORY></metadata><data><meanElements><EPOCH>2025-11-20T15:17:43.051776</EPOCH><MEAN_MOTION>13.50972272</MEAN_MOTION><ECCENTRICITY>.0012604</ECCENTRICITY><INCLINATION>89.0048</INCLINATION><RA_OF_ASC_NODE>43.4416</RA_OF_ASC_NODE><ARG_OF_PERICENTER>253.0855</ARG_OF_PERICENTER><MEAN_ANOMALY>106.8915</MEAN_ANOMALY></meanElements><tleParameters><EPHEMERIS_TYPE>0</EPHEMERIS_TYPE><CLASSIFICATION_TYPE>U</CLASSIFICATION_TYPE><NORAD_CAT_ID>62254</NORAD_CAT_ID><ELEMENT_SET_NO>999</ELEMENT_SET_NO><REV_AT_EPOCH>6492</REV_AT_EPOCH><BSTAR>.23291E-3</BSTAR><MEAN_MOTION_DOT>.162E-5</MEAN_MOTION_DOT><MEAN_MOTION_DDOT>0</MEAN_MOTION_DDOT></tleParameters></data></segment></body></omm>
<omm id="CCSDS_OMM_VERS" version="2.0">
<header><CREATION_DATE/><ORIGINATOR/></header><body><segment><metadata><OBJECT_NAME>QIANFAN-54</OBJECT_NAME><OBJECT_ID>2024-232U</OBJECT_ID><CENTER_NAME>EARTH</CENTER_NAME><REF_FRAME>TEME</REF_FRAME><TIME_SYSTEM>UTC</TIME_SYSTEM><MEAN_ELEMENT_THEORY>SGP4</MEAN_ELEMENT_THEORY></metadata><data><meanElements><EPOCH>2025-11-20T16:17:02.335200</EPOCH><MEAN_MOTION>13.50972470</MEAN_MOTION><ECCENTRICITY>.0000451</ECCENTRICITY><INCLINATION>89.0039</INCLINATION><RA_OF_ASC_NODE>43.1180</RA_OF_ASC_NODE><ARG_OF_PERICENTER>1.1260</ARG_OF_PERICENTER><MEAN_ANOMALY>358.9892</MEAN_ANOMALY></meanElements><tleParameters><EPHEMERIS_TYPE>0</EPHEMERIS_TYPE><CLASSIFICATION_TYPE>U</CLASSIFICATION_TYPE><NORAD_CAT_ID>62255</NORAD_CAT_ID><ELEMENT_SET_NO>999</ELEMENT_SET_NO><REV_AT_EPOCH>9643</REV_AT_EPOCH><BSTAR>.24618E-3</BSTAR><MEAN_MOTION_DOT>.171E-5</MEAN_MOTION_DOT><MEAN_MOTION_DDOT>0</MEAN_MOTION_DDOT></tleParameters></data></segment></body></omm>
<omm id="CCSDS_OMM_VERS" version="2.0">
<header><CREATION_DATE/><ORIGINATOR/></header><body><segment><metadata><OBJECT_NAME>QIANFAN-55</OBJECT_NAME><OBJECT_ID>2025-016A</OBJECT_ID><CENTER_NAME>EARTH</CENTER_NAME><REF_FRAME>TEME</REF_FRAME><TIME_SYSTEM>UTC</TIME_SYSTEM><MEAN_ELEMENT_THEORY>SGP4</MEAN_ELEMENT_THEORY></metadata><data><meanElements><EPOCH>2025-11-20T16:54:51.310656</EPOCH><MEAN_MOTION>13.50980899</MEAN_MOTION><ECCENTRICITY>.0018475</ECCENTRICITY><INCLINATION>88.9763</INCLINATION><RA_OF_ASC_NODE>105.4827</RA_OF_ASC_NODE><ARG_OF_PERICENTER>56.0072</ARG_OF_PERICENTER><MEAN_ANOMALY>304.2832</MEAN_ANOMALY></meanElements><tleParameters><EPHEMERIS_TYPE>0</EPHEMERIS_TYPE><CLASSIFICATION_TYPE>U</CLASSIFICATION_TYPE><NORAD_CAT_ID>62785</NORAD_CAT_ID><ELEMENT_SET_NO>999</ELEMENT_SET_NO><REV_AT_EPOCH>4421</REV_AT_EPOCH><BSTAR>.13103E-3</BSTAR><MEAN_MOTION_DOT>.97E-6</MEAN_MOTION_DOT><MEAN_MOTION_DDOT>0</MEAN_MOTION_DDOT></tleParameters></data></segment></body></omm>
<omm id="CCSDS_OMM_VERS" version="2.0">
<header><CREATION_DATE/><ORIGINATOR/></header><body><segment><metadata><OBJECT_NAME>QIANFAN-56</OBJECT_NAME><OBJECT_ID>2025-016B</OBJECT_ID><CENTER_NAME>EARTH</CENTER_NAME><REF_FRAME>TEME</REF_FRAME><TIME_SYSTEM>UTC</TIME_SYSTEM><MEAN_ELEMENT_THEORY>SGP4</MEAN_ELEMENT_THEORY></metadata><data><meanElements><EPOCH>2025-11-20T17:18:19.012032</EPOCH><MEAN_MOTION>13.50981597</MEAN_MOTION><ECCENTRICITY>.0017179</ECCENTRICITY><INCLINATION>88.9737</INCLINATION><RA_OF_ASC_NODE>105.3235</RA_OF_ASC_NODE><ARG_OF_PERICENTER>58.5234</ARG_OF_PERICENTER><MEAN_ANOMALY>301.7593</MEAN_ANOMALY></meanElements><tleParameters><EPHEMERIS_TYPE>0</EPHEMERIS_TYPE><CLASSIFICATION_TYPE>U</CLASSIFICATION_TYPE><NORAD_CAT_ID>62786</NORAD_CAT_ID><ELEMENT_SET_NO>999</ELEMENT_SET_NO><REV_AT_EPOCH>4426</REV_AT_EPOCH><BSTAR>.13241E-3</BSTAR><MEAN_MOTION_DOT>.98E-6</MEAN_MOTION_DOT><MEAN_MOTION_DDOT>0</MEAN_MOTION_DDOT></tleParameters></data></segment></body></omm>

</ndm>
